[{"OBJECT_NAME":"GLOBALSTAR M089","OBJECT_ID":"2011-033F","EPOCH":"2026-03-09T05:59:16.284192","MEAN_MOTION":12.62264756,"ECCENTRICITY":1.98e-5,"INCLINATION":51.9921,"RA_OF_ASC_NODE":94.1005,"ARG_OF_PERICENTER":165.4705,"MEAN_ANOMALY":273.7867,"EPHEMERIS_TYPE":0,"CLASSIFICATION_TYPE":"U","NORAD_CAT_ID":37744,"ELEMENT_SET_NO":999,"REV_AT_EPOCH":67816,"BSTAR":2.0006498e-5,"MEAN_MOTION_DOT":-1.0e-6,"MEAN_MOTION_DDOT":0},{"OBJECT_NAME":"COSMOS 1389","OBJECT_ID":"1982-073B","EPOCH":"2026-03-09T22:05:30.399936","MEAN_MOTION":12.55402961,"ECCENTRICITY":0.00414998,"INCLINATION":74.0122,"RA_OF_ASC_NODE":236.2514,"ARG_OF_PERICENTER":56.4696,"MEAN_ANOMALY":97.2276,"EPHEMERIS_TYPE":0,"CLASSIFICATION_TYPE":"U","NORAD_CAT_ID":13376,"ELEMENT_SET_NO":999,"REV_AT_EPOCH":99971,"BSTAR":6.7221457e-5,"MEAN_MOTION_DOT":-5.0e-8,"MEAN_MOTION_DDOT":0}]
